TDRS 3                  
1 19548U 88091B   26182.78878284 -.00000291  00000+0  00000+0 0  9995
2 19548  12.5907 340.9023 0037138 356.6262 177.3834  1.00268745125538
FLTSATCOM 8 (USA 46)    
1 20253U 89077A   26182.89452265 -.00000360  00000+0  00000+0 0  9991
2 20253  12.4173 351.0747 0003750  62.3469 314.2989  1.00269906260719
SKYNET 4C               
1 20776U 90079A   26162.20198486  .00000132  00000+0  00000+0 0  9996
2 20776  13.3424 349.8525 0002400  96.2313 279.5534  1.00274127130831
TDRS 5                  
1 21639U 91054B   26182.58535690  .00000090  00000+0  00000+0 0  9997
2 21639  14.0691 353.6694 0006482 259.2896  69.7721  1.00269239127858
TDRS 6                  
1 22314U 93003B   26182.96951980 -.00000290  00000+0  00000+0 0  9993
2 22314  14.1830 356.9484 0008760 180.2553  45.8162  1.00265958122552
UFO 2 (USA 95)          
1 22787U 93056A   26182.82334137  .00000131  00000+0  00000+0 0  9992
2 22787  11.8997   3.4735 0004245   8.8478 232.6094  1.00275648118699
USA 99 (MILSTAR-1 1)    
1 22988U 94009A   26182.49845626 -.00000092  00000+0  00000+0 0  9994
2 22988  17.6468  27.5559 0000986 181.1018 175.5085  0.98721864 33089
UFO 4 (USA 108)         
1 23467U 95003A   26182.76125594 -.00000015  00000+0  00000+0 0  9992
2 23467   9.6884  13.1357 0002937  83.7893 269.1621  1.00274377115092
TDRS 7                  
1 23613U 95035B   26182.90255546 -.00000233  00000+0  00000+0 0  9999
2 23613  13.3710 348.0882 0011709  82.9101 262.9741  1.00277407113390
USA 115 (MILSTAR-1 2)   
1 23712U 95060A   26182.85326523 -.00000197  00000+0  00000+0 0  9994
2 23712  14.0769   3.6337 0006469 115.5656  17.8464  1.00273448 33038
INMARSAT 3-F1           
1 23839U 96020A   26182.63397971 -.00000019  00000+0  00000+0 0  9995
2 23839  10.6303  46.5005 0003962  72.1809 278.7761  0.99978173110392
INMARSAT 3-F2           
1 24307U 96053A   26182.60596549 -.00000334  00000+0  00000+0 0  9991
2 24307   9.8887  53.7887 0006420  42.6275 176.6901  0.99998362109065
INMARSAT 3-F3           
1 24674U 96070A   26182.80384397  .00000114  00000+0  00000+0 0  9990
2 24674  10.3490  49.5123 0003301  56.2632 130.9093  0.99989473108054
USA 134                 
1 25019U 97065A   26182.68898557 -.00000058  00000+0  00000+0 0  9991
2 25019  12.8003  21.6104 0002695 347.7340  45.9987  1.00271351 33106
INMARSAT 3-F5           
1 25153U 98006B   26182.10378512 -.00000286  00000+0  00000+0 0  9990
2 25153   9.7224  53.1199 0004275  45.0715 164.3657  1.00271204104037
ABS-6                   
1 25924U 99053A   26182.90119602 -.00000109  00000+0  00000+0 0  9994
2 25924   0.0447 276.0389 0003043 162.5167 324.8161  1.00271933 97986
UFO 10 (USA 146)        
1 25967U 99063A   26180.37000920 -.00000185  00000+0  00000+0 0  9997
2 25967   9.8449  27.1462 0001552  73.9701 286.4977  1.00268568 97462
ASIASTAR                
1 26107U 00016A   26182.89130771 -.00000328  00000+0  00000+0 0  9990
2 26107   9.1617  57.9954 0004533  42.4796 245.3429  1.00270075 96060
USA 149 (DSP 20)        
1 26356U 00024A   26182.27395093  .00000100  00000+0  00000+0 0  9994
2 26356  13.1804  11.7487 0001357 319.1625 241.9577  1.00281769 33052
TDRS 8                  
1 26388U 00034A   26182.60133608 -.00000192  00000+0  00000+0 0  9991
2 26388  12.7059  31.1984 0004564  26.5786 163.1397  1.00274936 95323
NSS-11                  
1 26554U 00059A   26182.83328443  .00000034  00000+0  00000+0 0  9995
2 26554   2.1623  81.2269 0003128  16.1414 298.4905  1.00271541 41437
USA 153                 
1 26575U 00065A   26181.47055027 -.00000323  00000+0  00000+0 0  9991
2 26575  11.6465  35.3089 0003035  54.5579 132.3965  1.00267599 33064
AMC-6                   
1 26580U 00067A   26182.91428274  .00000098  00000+0  00000+0 0  9995
2 26580   0.1878  83.4365 0004094  28.2287   2.4139  1.00273003 94044
USA 157 (MILSTAR-2 2)   
1 26715U 01009A   26182.57680024  .00000115  00000+0  00000+0 0  9997
2 26715  11.5575  19.6711 0039887 178.1891 139.3617  1.00269385 33080
INTELSAT 902 (IS-902)   
1 26900U 01039A   26182.50330962 -.00000277  00000+0  00000+0 0  9992
2 26900   6.1523  71.6085 0004276  27.0013 312.0253  1.00272416 90834
USA 164 (MILSTAR-2 3)   
1 27168U 02001A   26180.82961494  .00000101  00000+0  00000+0 0  9997
2 27168  11.1939  21.8279 0099417   8.8560 204.7984  1.00272159 33081
INTELSAT 904 (IS-904)   
1 27380U 02007A   26182.43579384 -.00000219  00000+0  00000+0 0  9992
2 27380   6.9534  69.0143 0006343  15.1246 320.7588  1.00271894 51907
DIRECTV 5 (TEMPO 1)     
1 27426U 02023A   26182.84784450 -.00000050  00000+0  00000+0 0  9991
2 27426   4.9131  75.1319 0003539  33.9193   5.9629  1.00271741 88274
INTELSAT 905 (IS-905)   
1 27438U 02027A   26182.77122265  .00000100  00000+0  00000+0 0  9995
2 27438   6.7880  69.6253 0004032  32.0997 318.5300  1.00272219 51500
GALAXY 3C (G-3C)        
1 27445U 02030A   26182.55484317 -.00000145  00000+0  00000+0 0  9992
2 27445   3.7679  77.7949 0001945  28.1791 278.5502  1.00272276 46631
INTELSAT 906 (IS-906)   
1 27513U 02041A   26182.81109766  .00000020  00000+0  00000+0 0  9992
2 27513   5.8387  72.7411 0004074   9.6610 193.5969  1.00270414 87174
